NOAA 15                 
1 25338U 98030A   24332.50354390  .00000578  00000+0  25610-3 0  9990
2 25338  98.5550 356.1346 0009837 201.6956 158.3809 14.26807971380728
NOAA 18                 
1 28654U 05018A   24332.46075256  .00000581  00000+0  33215-3 0  9998
2 28654  98.8627  47.9837 0013486 323.2620  36.7627 14.13433568  6325
NOAA 19                 
1 33591U 09005A   24332.50687318  .00000541  00000+0  31299-3 0  9993
2 33591  99.0270  29.8787 0013733 188.0304 172.0650 14.13211707814698
METOP-B                 
1 38771U 12049A   24332.47262255  .00000484  00000+0  24026-3 0  9991
2 38771  98.6074  25.8614 0000962  79.3024 280.8262 14.21595403632744
SARAL                   
1 39086U 13009A   24332.45475669  .00000485  00000+0  19490-3 0  9991
2 39086  98.5487 155.3593 0002412 137.8961 222.2409 14.32591601614457
METOP-C                 
1 43689U 18087A   24332.44315597  .00000068  00000+0  50905-4 0  9992
2 43689  98.7038  29.6388 0001275  31.6653 328.4600 14.21478119314315
ANGELS                  
1 44876U 19092D   24331.76200786  .00015875  00000+0  51844-3 0  9999
2 44876  97.4649 161.0150 0010134 100.9192 259.3190 15.31790853274201
OTB-3-GAZELLE           
1 54023U 22127A   24332.22881108  .00000602  00000+0  19498-3 0  9993
2 54023  98.3551 323.0477 0014459  98.5731 261.7097 14.42325349112620
EOS-6 (OCEANSAT-3)      
1 54361U 22158A   24332.14024183  .00001228  00000+0  34959-3 0  9999
2 54361  98.3551  66.9879 0001130  88.6059 271.5263 14.47019649105836
